STARLINK-2269
1 28447C 21040V   21325.13296933  .00003247  00000-0  21752-3 0  3252
2 28447  53.0560  27.6212 0001361  65.8696 184.3822 15.06398799    15
